{"type": "FeatureCollection", "features": [ {"type": "Feature", "properties": {"norad_id": 30690, "name": "FENGYUN 1C DEB", "group": "fengyun-1c-debris", "lat": 35.48872282893852, "lon": -74.94005728302176, "alt_km": 806.792500596699, "timestamp": "2025-12-27T04:40:45.783661+00:00", "meta": {"OBJECT_NAME": "FENGYUN 1C DEB", "OBJECT_ID": "1999-025AQY", "EPOCH": "2025-12-26T18:29:20.666112", "MEAN_MOTION": 14.02390362, "ECCENTRICITY": 0.01049475, "INCLINATION": 99.1594, "RA_OF_ASC_NODE": 291.2388, "ARG_OF_PERICENTER": 37.7194, "MEAN_ANOMALY": 15.949, "EPHEMERIS_TYPE": 0, "CLASSIFICATION_TYPE": "U", "NORAD_CAT_ID": 30690, "ELEMENT_SET_NO": 999, "REV_AT_EPOCH": 95904, "BSTAR": 0.0018026931, "MEAN_MOTION_DOT": 2.861e-05, "MEAN_MOTION_DDOT": 0}, "tle": {"line1": "1 30690U 99025AQY 25360.77037808  .00002861  00000+0  18027-2 0  9995", "line2": "2 30690  99.1594 291.2388 0104947  37.7194  15.9490 14.02390362959041"}}, "geometry": {"type": "Point", "coordinates": [-74.94005728302176, 35.48872282893852]}}, {"type": "Feature", "properties": {"norad_id": 30691, "name": "FENGYUN 1C DEB", "group": "fengyun-1c-debris", "lat": 76.73833131384548, "lon": -29.033832323205218, "alt_km": 962.7087485003094, "timestamp": "2025-12-27T04:40:45.783671+00:00", "meta": {"OBJECT_NAME": "FENGYUN 1C DEB", "OBJECT_ID": "1999-025AQZ", "EPOCH": "2025-12-25T13:10:12.042336", "MEAN_MOTION": 13.89468034, "ECCENTRICITY": 0.0139659, "INCLINATION": 98.7427, "RA_OF_ASC_NODE": 10.181, "ARG_OF_PERICENTER": 198.0062, "MEAN_ANOMALY": 293.4196, "EPHEMERIS_TYPE": 0, "CLASSIFICATION_TYPE": "U", "NORAD_CAT_ID": 30691, "ELEMENT_SET_NO": 999, "REV_AT_EPOCH": 95294, "BSTAR": 0.001004, "MEAN_MOTION_DOT": 1.286e-05, "MEAN_MOTION_DDOT": 0}, "tle": {"line1": "1 30691U 99025AQZ 25359.54875049  .00001286  00000+0  10040-2 0  9993", "line2": "2 30691  98.7427  10.1810 0139659 198.0062 293.4196 13.89468034952947"}}, "geometry": {"type": "Point", "coordinates": [-29.033832323205218, 76.73833131384548]}}, {"type": "Feature", "properties": {"norad_id": 30693, "name": "FENGYUN 1C DEB", "group": "fengyun-1c-debris", "lat": -5.025292142063437, "lon": -13.32976849552473, "alt_km": 865.917848056919, "timestamp": "2025-12-27T04:40:45.783681+00:00", "meta": {"OBJECT_NAME": "FENGYUN 1C DEB", "OBJECT_ID": "1999-025ARB", "EPOCH": "2025-12-26T21:54:25.362720", "MEAN_MOTION": 14.13302674, "ECCENTRICITY": 0.00298947, "INCLINATION": 98.6879, "RA_OF_ASC_NODE": 345.6259, "ARG_OF_PERICENTER": 127.3676, "MEAN_ANOMALY": 233.0226, "EPHEMERIS_TYPE": 0, "CLASSIFICATION_TYPE": "U", "NORAD_CAT_ID": 30693, "ELEMENT_SET_NO": 999, "REV_AT_EPOCH": 97135, "BSTAR": 0.00032574476, "MEAN_MOTION_DOT": 5.71e-06, "MEAN_MOTION_DDOT": 0}, "tle": {"line1": "1 30693U 99025ARB 25360.91279355  .00000571  00000+0  32574-3 0  9999", "line2": "2 30693  98.6879 345.6259 0029894 127.3676 233.0226 14.13302674971352"}}, "geometry": {"type": "Point", "coordinates": [-13.32976849552473, -5.025292142063437]}}, {"type": "Feature", "properties": {"norad_id": 30694, "name": "FENGYUN 1C DEB", "group": "fengyun-1c-debris", "lat": 75.29433098615579, "lon": -173.21921924179958, "alt_km": 675.7455703451469, "timestamp": "2025-12-27T04:40:45.783691+00:00", "meta": {"OBJECT_NAME": "FENGYUN 1C DEB", "OBJECT_ID": "1999-025ARC", "EPOCH": "2025-12-26T10:26:52.071360", "MEAN_MOTION": 14.86834467, "ECCENTRICITY": 0.0129307, "INCLINATION": 99.0496, "RA_OF_ASC_NODE": 328.5234, "ARG_OF_PERICENTER": 250.7324, "MEAN_ANOMALY": 107.9863, "EPHEMERIS_TYPE": 0, "CLASSIFICATION_TYPE": "U", "NORAD_CAT_ID": 30694, "ELEMENT_SET_NO": 999, "REV_AT_EPOCH": 299, "BSTAR": 0.0011102, "MEAN_MOTION_DOT": 0.00011476, "MEAN_MOTION_DDOT": 0}, "tle": {"line1": "1 30694U 99025ARC 25360.43532490  .00011476  00000+0  11102-2 0  9998", "line2": "2 30694  99.0496 328.5234 0129307 250.7324 107.9863 14.86834467  2998"}}, "geometry": {"type": "Point", "coordinates": [-173.21921924179958, 75.29433098615579]}}, {"type": "Feature", "properties": {"norad_id": 30696, "name": "FENGYUN 1C DEB", "group": "fengyun-1c-debris", "lat": 24.824079925203275, "lon": 46.114809519748555, "alt_km": 706.9454947167897, "timestamp": "2025-12-27T04:40:45.783702+00:00", "meta": {"OBJECT_NAME": "FENGYUN 1C DEB", "OBJECT_ID": "1999-025ARE", "EPOCH": "2025-12-26T20:30:20.052000", "MEAN_MOTION": 14.4484066, "ECCENTRICITY": 0.00895622, "INCLINATION": 98.3875, "RA_OF_ASC_NODE": 49.692, "ARG_OF_PERICENTER": 83.5366, "MEAN_ANOMALY": 332.0895, "EPHEMERIS_TYPE": 0, "CLASSIFICATION_TYPE": "U", "NORAD_CAT_ID": 30696, "ELEMENT_SET_NO": 999, "REV_AT_EPOCH": 98508, "BSTAR": 0.00089089936, "MEAN_MOTION_DOT": 3.21e-05, "MEAN_MOTION_DDOT": 0}, "tle": {"line1": "1 30696U 99025ARE 25360.85439875  .00003210  00000+0  89090-3 0  9998", "line2": "2 30696  98.3875  49.6920 0089562  83.5366 332.0895 14.44840660985084"}}, "geometry": {"type": "Point", "coordinates": [46.114809519748555, 24.824079925203275]}}, {"type": "Feature", "properties": {"norad_id": 30697, "name": "FENGYUN 1C DEB", "group": "fengyun-1c-debris", "lat": -27.206182556026953, "lon": 62.59880924921184, "alt_km": 915.7333337500677, "timestamp": "2025-12-27T04:40:45.783712+00:00", "meta": {"OBJECT_NAME": "FENGYUN 1C DEB", "OBJECT_ID": "1999-025ARF", "EPOCH": "2025-12-26T03:27:11.321856", "MEAN_MOTION": 14.13594152, "ECCENTRICITY": 0.00878965, "INCLINATION": 98.9056, "RA_OF_ASC_NODE": 56.9291, "ARG_OF_PERICENTER": 148.0529, "MEAN_ANOMALY": 238.6392, "EPHEMERIS_TYPE": 0, "CLASSIFICATION_TYPE": "U", "NORAD_CAT_ID": 30697, "ELEMENT_SET_NO": 999, "REV_AT_EPOCH": 96450, "BSTAR": 0.0013448857, "MEAN_MOTION_DOT": 2.588e-05, "MEAN_MOTION_DDOT": 0}, "tle": {"line1": "1 30697U 99025ARF 25360.14388104  .00002588  00000+0  13449-2 0  9990", "line2": "2 30697  98.9056  56.9291 0087896 148.0529 238.6392 14.13594152964505"}}, "geometry": {"type": "Point", "coordinates": [62.59880924921184, -27.206182556026953]}}, {"type": "Feature", "properties": {"norad_id": 30699, "name": "FENGYUN 1C DEB", "group": "fengyun-1c-debris", "lat": 41.640179495560524, "lon": 113.71680188944111, "alt_km": 735.0852352555958, "timestamp": "2025-12-27T04:40:45.783722+00:00", "meta": {"OBJECT_NAME": "FENGYUN 1C DEB", "OBJECT_ID": "1999-025ARH", "EPOCH": "2025-12-26T06:54:44.743104", "MEAN_MOTION": 14.47142909, "ECCENTRICITY": 0.0004981, "INCLINATION": 99.312, "RA_OF_ASC_NODE": 121.1084, "ARG_OF_PERICENTER": 223.4387, "MEAN_ANOMALY": 136.641, "EPHEMERIS_TYPE": 0, "CLASSIFICATION_TYPE": "U", "NORAD_CAT_ID": 30699, "ELEMENT_SET_NO": 999, "REV_AT_EPOCH": 97809, "BSTAR": 0.0023009, "MEAN_MOTION_DOT": 8.353e-05, "MEAN_MOTION_DDOT": 0}, "tle": {"line1": "1 30699U 99025ARH 25360.28801786  .00008353  00000+0  23009-2 0  9992", "line2": "2 30699  99.3120 121.1084 0004981 223.4387 136.6410 14.47142909978096"}}, "geometry": {"type": "Point", "coordinates": [113.71680188944111, 41.640179495560524]}}, {"type": "Feature", "properties": {"norad_id": 30700, "name": "FENGYUN 1C DEB", "group": "fengyun-1c-debris", "lat": 4.98073599557292, "lon": 28.344768939407714, "alt_km": 821.3131441275109, "timestamp": "2025-12-27T04:40:45.783732+00:00", "meta": {"OBJECT_NAME": "FENGYUN 1C DEB", "OBJECT_ID": "1999-025ARJ", "EPOCH": "2025-12-26T20:13:22.114848", "MEAN_MOTION": 14.23806205, "ECCENTRICITY": 0.00874377, "INCLINATION": 98.5403, "RA_OF_ASC_NODE": 28.7529, "ARG_OF_PERICENTER": 102.6576, "MEAN_ANOMALY": 258.4396, "EPHEMERIS_TYPE": 0, "CLASSIFICATION_TYPE": "U", "NORAD_CAT_ID": 30700, "ELEMENT_SET_NO": 999, "REV_AT_EPOCH": 97770, "BSTAR": 0.0001798292, "MEAN_MOTION_DOT": 3.86e-06, "MEAN_MOTION_DDOT": 0}, "tle": {"line1": "1 30700U 99025ARJ 25360.84261707  .00000386  00000+0  17983-3 0  9993", "line2": "2 30700  98.5403  28.7529 0087437 102.6576 258.4396 14.23806205977708"}}, "geometry": {"type": "Point", "coordinates": [28.344768939407714, 4.98073599557292]}}, {"type": "Feature", "properties": {"norad_id": 30701, "name": "FENGYUN 1C DEB", "group": "fengyun-1c-debris", "lat": -48.021148119410796, "lon": -147.68228371071157, "alt_km": 877.7014891769741, "timestamp": "2025-12-27T04:40:45.783742+00:00", "meta": {"OBJECT_NAME": "FENGYUN 1C DEB", "OBJECT_ID": "1999-025ARK", "EPOCH": "2025-12-26T14:44:12.755328", "MEAN_MOTION": 14.13935652, "ECCENTRICITY": 0.003564, "INCLINATION": 98.7164, "RA_OF_ASC_NODE": 41.5686, "ARG_OF_PERICENTER": 64.3688, "MEAN_ANOMALY": 88.8056, "EPHEMERIS_TYPE": 0, "CLASSIFICATION_TYPE": "U", "NORAD_CAT_ID": 30701, "ELEMENT_SET_NO": 999, "REV_AT_EPOCH": 97315, "BSTAR": 1.5497e-05, "MEAN_MOTION_DOT": -1.3e-07, "MEAN_MOTION_DDOT": 0}, "tle": {"line1": "1 30701U 99025ARK 25360.61403652 -.00000013  00000+0  15497-4 0  9993", "line2": "2 30701  98.7164  41.5686 0035640  64.3688  88.8056 14.13935652973150"}}, "geometry": {"type": "Point", "coordinates": [-147.68228371071157, -48.021148119410796]}}, {"type": "Feature", "properties": {"norad_id": 30702, "name": "FENGYUN 1C DEB", "group": "fengyun-1c-debris", "lat": -3.6843900594704047, "lon": 21.090232387677837, "alt_km": 888.9913221448023, "timestamp": "2025-12-27T04:40:45.783752+00:00", "meta": {"OBJECT_NAME": "FENGYUN 1C DEB", "OBJECT_ID": "1999-025ARL", "EPOCH": "2025-12-25T23:54:42.009984", "MEAN_MOTION": 14.03630029, "ECCENTRICITY": 0.0069065, "INCLINATION": 98.7691, "RA_OF_ASC_NODE": 19.3648, "ARG_OF_PERICENTER": 264.3214, "MEAN_ANOMALY": 157.7421, "EPHEMERIS_TYPE": 0, "CLASSIFICATION_TYPE": "U", "NORAD_CAT_ID": 30702, "ELEMENT_SET_NO": 999, "REV_AT_EPOCH": 96348, "BSTAR": 0.00096778, "MEAN_MOTION_DOT": 1.509e-05, "MEAN_MOTION_DDOT": 0}, "tle": {"line1": "1 30702U 99025ARL 25359.99631956  .00001509  00000+0  96778-3 0  9993", "line2": "2 30702  98.7691  19.3648 0069065 264.3214 157.7421 14.03630029963488"}}, "geometry": {"type": "Point", "coordinates": [21.090232387677837, -3.6843900594704047]}}]}